{
  "type": "FeatureCollection",
  "features": [
    {
      "type": "Feature",
      "properties": {
        "norad_id": 41589,
        "name": "EUTELSAT 117 WEST B (WAAS/PRN 131)",
        "group": "gnss",
        "lat": 0.008994039249581339,
        "lon": -43.6434883012115,
        "alt_km": 35785.72897030739,
        "timestamp": "2025-12-27T22:26:48.849464+00:00",
        "meta_object_name": "EUTELSAT 117 WEST B (WAAS/PRN 131)",
        "meta_object_id": "2016-038B",
        "meta_epoch": "2025-12-27T07:38:14.830080",
        "meta_mean_motion": 1.00273464,
        "meta_eccentricity": 1.53e-05,
        "meta_inclination": 0.0038,
        "meta_ra_of_asc_node": 165.68,
        "meta_arg_of_pericenter": 47.668,
        "meta_mean_anomaly": 240.2602,
        "meta_ephemeris_type": 0,
        "meta_classification_type": "U",
        "meta_norad_cat_id": 41589,
        "meta_element_set_no": 999,
        "meta_rev_at_epoch": 3494,
        "meta_bstar": 0,
        "meta_mean_motion_dot": 1.1e-07,
        "meta_mean_motion_ddot": 0,
        "tle_line1": "1 41589U 16038B   25361.31822720  .00000011  00000+0  00000+0 0  9997",
        "tle_line2": "2 41589   0.0038 165.6800 0000153  47.6680 240.2602  1.00273464 34949"
      },
      "geometry": {
        "type": "Point",
        "coordinates": [
          -43.6434883012115,
          0.008994039249581339
        ]
      }
    },
    {
      "type": "Feature",
      "properties": {
        "norad_id": 41859,
        "name": "GSAT0207 (GALILEO 15)",
        "group": "gnss",
        "lat": -50.764298747740455,
        "lon": 48.210413885776596,
        "alt_km": 23221.362018654876,
        "timestamp": "2025-12-27T22:26:48.849475+00:00",
        "meta_object_name": "GSAT0207 (GALILEO 15)",
        "meta_object_id": "2016-069A",
        "meta_epoch": "2025-12-22T04:24:39.710016",
        "meta_mean_motion": 1.70474442,
        "meta_eccentricity": 0.00024396,
        "meta_inclination": 55.3874,
        "meta_ra_of_asc_node": 105.9888,
        "meta_arg_of_pericenter": 317.4324,
        "meta_mean_anomaly": 42.5257,
        "meta_ephemeris_type": 0,
        "meta_classification_type": "U",
        "meta_norad_cat_id": 41859,
        "meta_element_set_no": 999,
        "meta_rev_at_epoch": 5638,
        "meta_bstar": 0,
        "meta_mean_motion_dot": 6e-08,
        "meta_mean_motion_ddot": 0,
        "tle_line1": "1 41859U 16069A   25356.18379294  .00000006  00000+0  00000+0 0  9997",
        "tle_line2": "2 41859  55.3874 105.9888 0002439 317.4324  42.5257  1.70474442 56382"
      },
      "geometry": {
        "type": "Point",
        "coordinates": [
          48.210413885776596,
          -50.764298747740455
        ]
      }
    },
    {
      "type": "Feature",
      "properties": {
        "norad_id": 41860,
        "name": "GSAT0212 (GALILEO 16)",
        "group": "gnss",
        "lat": 16.072967401543806,
        "lon": 117.28530633470488,
        "alt_km": 23214.174971926805,
        "timestamp": "2025-12-27T22:26:48.849486+00:00",
        "meta_object_name": "GSAT0212 (GALILEO 16)",
        "meta_object_id": "2016-069B",
        "meta_epoch": "2025-12-26T03:26:41.871552",
        "meta_mean_motion": 1.70474669,
        "meta_eccentricity": 0.00020518,
        "meta_inclination": 55.3873,
        "meta_ra_of_asc_node": 105.8745,
        "meta_arg_of_pericenter": 19.1308,
        "meta_mean_anomaly": 340.872,
        "meta_ephemeris_type": 0,
        "meta_classification_type": "U",
        "meta_norad_cat_id": 41860,
        "meta_element_set_no": 999,
        "meta_rev_at_epoch": 5670,
        "meta_bstar": 0,
        "meta_mean_motion_dot": 1.8e-07,
        "meta_mean_motion_ddot": 0,
        "tle_line1": "1 41860U 16069B   25360.14354018  .00000018  00000+0  00000+0 0  9990",
        "tle_line2": "2 41860  55.3873 105.8745 0002051  19.1308 340.8720  1.70474669 56708"
      },
      "geometry": {
        "type": "Point",
        "coordinates": [
          117.28530633470488,
          16.072967401543806
        ]
      }
    },
    {
      "type": "Feature",
      "properties": {
        "norad_id": 41861,
        "name": "GSAT0213 (GALILEO 17)",
        "group": "gnss",
        "lat": 21.104649880517666,
        "lon": -89.605325723611,
        "alt_km": 23224.97219041494,
        "timestamp": "2025-12-27T22:26:48.849497+00:00",
        "meta_object_name": "GSAT0213 (GALILEO 17)",
        "meta_object_id": "2016-069C",
        "meta_epoch": "2025-12-25T22:11:16.691136",
        "meta_mean_motion": 1.70474838,
        "meta_eccentricity": 0.0002917,
        "meta_inclination": 55.3899,
        "meta_ra_of_asc_node": 105.8882,
        "meta_arg_of_pericenter": 282.7957,
        "meta_mean_anomaly": 77.1667,
        "meta_ephemeris_type": 0,
        "meta_classification_type": "U",
        "meta_norad_cat_id": 41861,
        "meta_element_set_no": 999,
        "meta_rev_at_epoch": 5656,
        "meta_bstar": 0,
        "meta_mean_motion_dot": 1.8e-07,
        "meta_mean_motion_ddot": 0,
        "tle_line1": "1 41861U 16069C   25359.92449874  .00000018  00000+0  00000+0 0  9990",
        "tle_line2": "2 41861  55.3899 105.8882 0002917 282.7957  77.1667  1.70474838 56560"
      },
      "geometry": {
        "type": "Point",
        "coordinates": [
          -89.605325723611,
          21.104649880517666
        ]
      }
    },
    {
      "type": "Feature",
      "properties": {
        "norad_id": 41862,
        "name": "GSAT0214 (GALILEO 18)",
        "group": "gnss",
        "lat": 47.97458880380589,
        "lon": 155.7564438788276,
        "alt_km": 23219.810583397895,
        "timestamp": "2025-12-27T22:26:48.849508+00:00",
        "meta_object_name": "GSAT0214 (GALILEO 18)",
        "meta_object_id": "2016-069D",
        "meta_epoch": "2025-12-27T05:50:53.189088",
        "meta_mean_motion": 1.70474774,
        "meta_eccentricity": 0.0001607,
        "meta_inclination": 55.3883,
        "meta_ra_of_asc_node": 105.8444,
        "meta_arg_of_pericenter": 288.5964,
        "meta_mean_anomaly": 71.3802,
        "meta_ephemeris_type": 0,
        "meta_classification_type": "U",
        "meta_norad_cat_id": 41862,
        "meta_element_set_no": 999,
        "meta_rev_at_epoch": 5671,
        "meta_bstar": 0,
        "meta_mean_motion_dot": 1.5e-07,
        "meta_mean_motion_ddot": 0,
        "tle_line1": "1 41862U 16069D   25361.24367117  .00000015  00000+0  00000+0 0  9995",
        "tle_line2": "2 41862  55.3883 105.8444 0001607 288.5964  71.3802  1.70474774 56718"
      },
      "geometry": {
        "type": "Point",
        "coordinates": [
          155.7564438788276,
          47.97458880380589
        ]
      }
    },
    {
      "type": "Feature",
      "properties": {
        "norad_id": 42709,
        "name": "SES-15 (WAAS/PRN 133)",
        "group": "gnss",
        "lat": -0.02427628146001554,
        "lon": -55.834214875315155,
        "alt_km": 35784.229325984576,
        "timestamp": "2025-12-27T22:26:48.849523+00:00",
        "meta_object_name": "SES-15 (WAAS/PRN 133)",
        "meta_object_id": "2017-026A",
        "meta_epoch": "2025-12-27T07:38:38.830272",
        "meta_mean_motion": 1.00267743,
        "meta_eccentricity": 9e-05,
        "meta_inclination": 0.0202,
        "meta_ra_of_asc_node": 336.3398,
        "meta_arg_of_pericenter": 6.9478,
        "meta_mean_anomaly": 98.251,
        "meta_ephemeris_type": 0,
        "meta_classification_type": "U",
        "meta_norad_cat_id": 42709,
        "meta_element_set_no": 999,
        "meta_rev_at_epoch": 571,
        "meta_bstar": 0,
        "meta_mean_motion_dot": 8.3e-07,
        "meta_mean_motion_ddot": 0,
        "tle_line1": "1 42709U 17026A   25361.31850498  .00000083  00000+0  00000+0 0  9992",
        "tle_line2": "2 42709   0.0202 336.3398 0000900   6.9478  98.2510  1.00267743  5714"
      },
      "geometry": {
        "type": "Point",
        "coordinates": [
          -55.834214875315155,
          -0.02427628146001554
        ]
      }
    },
    {
      "type": "Feature",
      "properties": {
        "norad_id": 42738,
        "name": "QZS-2 (QZSS/PRN 194)",
        "group": "gnss",
        "lat": -14.040471155122617,
        "lon": -131.83664607953708,
        "alt_km": 34401.516718525774,
        "timestamp": "2025-12-27T22:26:48.849535+00:00",
        "meta_object_name": "QZS-2 (QZSS/PRN 194)",
        "meta_object_id": "2017-028A",
        "meta_epoch": "2025-12-21T12:44:15.516096",
        "meta_mean_motion": 1.00280763,
        "meta_eccentricity": 0.07561437,
        "meta_inclination": 39.6996,
        "meta_ra_of_asc_node": 245.7532,
        "meta_arg_of_pericenter": 269.5788,
        "meta_mean_anomaly": 268.1676,
        "meta_ephemeris_type": 0,
        "meta_classification_type": "U",
        "meta_norad_cat_id": 42738,
        "meta_element_set_no": 999,
        "meta_rev_at_epoch": 584,
        "meta_bstar": 0,
        "meta_mean_motion_dot": -1.06e-06,
        "meta_mean_motion_ddot": 0,
        "tle_line1": "1 42738U 17028A   25355.53073514 -.00000106  00000+0  00000+0 0  9996",
        "tle_line2": "2 42738  39.6996 245.7532 0756143 269.5788 268.1676  1.00280763  5847"
      },
      "geometry": {
        "type": "Point",
        "coordinates": [
          -131.83664607953708,
          -14.040471155122617
        ]
      }
    }
  ]
}